NORAD_CAT_ID,OBJECT_NAME,OBJECT_TYPE,EPOCH,MEAN_MOTION,ECCENTRICITY,INCLINATION,RA_OF_ASC_NODE,ARG_OF_PERICENTER,MEAN_ANOMALY,BSTAR,MEAN_MOTION_DOT,MEAN_MOTION_DDOT,TLE_LINE0,TLE_LINE1,TLE_LINE2,SEMIMAJOR_AXIS,PERIOD,APOGEE,PERIGEE,DECAYED
54795.0,STARLINK-5436,PAYLOAD,2024-08-03 22:05:50,15.08829858,0.0001389,53.2171,125.1007,82.6292,277.4858,2.4561e-05,1.03e-06,0.0,0 STARLINK-5436,1 54795U 22175AP  24216.92072382  .00000103  00000-0  24561-4 0  9991,2 54795  53.2171 125.1007 0001389  82.6292 277.4858 15.08829858 92159,6917.911,95.438,540.737,538.815,0.0
54795.0,STARLINK-5436,PAYLOAD,2024-08-04 10:48:54,15.08858869,0.0001411,53.2192,122.7216,79.0513,281.0638,0.00037124,5.628e-05,0.0,0 STARLINK-5436,1 54795U 22175AP  24217.45062950  .00005628  00000-0  37124-3 0  9995,2 54795  53.2192 122.7216 0001411  79.0513 281.0638 15.08858869 90079,6917.823,95.436,540.664,538.712,0.0
54795.0,STARLINK-5436,PAYLOAD,2024-08-04 21:56:37,15.08841921,0.0001602,53.2173,120.6424,93.175,266.9425,0.00011298,1.511e-05,0.0,0 STARLINK-5436,1 54795U 22175AP  24217.91431798  .00001511  00000-0  11298-3 0  9997,2 54795  53.2173 120.6424 0001602  93.1750 266.9425 15.08841921 92303,6917.875,95.437,540.848,538.631,0.0
54795.0,STARLINK-5436,PAYLOAD,2024-08-05 01:07:22,15.08860512,0.0001323,53.217,120.0409,79.5961,280.518,0.00036188,5.479e-05,0.0,0 STARLINK-5436,1 54795U 22175AP  24218.04678986  .00005479  00000-0  36188-3 0  9996,2 54795  53.2170 120.0409 0001323  79.5961 280.5180 15.08860512 90168,6917.818,95.436,540.598,538.767,0.0
54795.0,STARLINK-5436,PAYLOAD,2024-08-05 23:22:47,15.08803525,0.000111,53.2179,115.8825,75.7873,284.3243,-0.00076953,-0.00012502,0.0,0 STARLINK-5436,1 54795U 22175AP  24218.97416539 -.00012502  00000-0 -76953-3 0  9993,2 54795  53.2179 115.8825 0001110  75.7873 284.3243 15.08803525 92463,6917.992,95.44,540.625,539.089,0.0
54795.0,STARLINK-5436,PAYLOAD,2024-08-06 00:58:11,15.0880725,0.0001345,53.2159,115.583,73.2072,286.9067,5.8175e-06,-1.95e-06,0.0,0 STARLINK-5436,1 54795U 22175AP  24219.04040656 -.00000195  00000-0  58175-5 0  9997,2 54795  53.2159 115.5830 0001345  73.2072 286.9067 15.08807250 90311,6917.98,95.44,540.776,538.915,0.0
54795.0,STARLINK-5436,PAYLOAD,2024-08-06 16:52:03,15.08837534,0.0001434,53.2159,112.6104,70.6149,289.4998,0.001935,0.0003064,0.0,0 STARLINK-5436,1 54795U 22175AP  24219.70281961  .00030640  00000-0  19350-2 0  9992,2 54795  53.2159 112.6104 0001434  70.6149 289.4998 15.08837534 90418,6917.888,95.438,540.745,538.761,0.0
54795.0,STARLINK-5436,PAYLOAD,2024-08-06 21:38:12,15.08856463,0.0001409,53.2158,111.7186,70.8683,289.2462,0.0022902,0.00036365,0.0,0 STARLINK-5436,1 54795U 22175AP  24219.90153778  .00036365  00000-0  22902-2 0  9995,2 54795  53.2158 111.7186 0001409  70.8683 289.2462 15.08856463 92603,6917.83,95.437,540.67,538.72,0.0
54795.0,STARLINK-5436,PAYLOAD,2024-08-06 23:13:35,15.08860592,0.0001432,53.2151,111.4211,70.7464,289.3683,0.0022291,0.00035387,0.0,0 STARLINK-5436,1 54795U 22175AP  24219.96777684  .00035387  00000-0  22291-2 0  9993,2 54795  53.2151 111.4211 0001432  70.7464 289.3683 15.08860592 90459,6917.817,95.436,540.673,538.692,0.0
54795.0,STARLINK-5436,PAYLOAD,2024-08-07 19:53:35,15.08888121,0.0001179,53.2158,107.5552,90.3696,269.7432,0.0023712,0.00037702,0.0,0 STARLINK-5436,1 54795U 22175AP  24220.82888658  .00037702  00000-0  23712-2 0  9996,2 54795  53.2158 107.5552 0001179  90.3696 269.7432 15.08888121 90589,6917.733,95.435,540.414,538.783,0.0
54795.0,STARLINK-5436,PAYLOAD,2024-08-08 19:44:22,15.08880371,0.0002145,53.2165,103.0952,17.887,342.2197,0.0022027,0.00034982,0.0,0 STARLINK-5436,1 54795U 22175AP  24221.82248513  .00034982  00000-0  22027-2 0  9992,2 54795  53.2165 103.0952 0002145  17.8870 342.2197 15.08880371 90735,6917.757,95.435,541.106,538.138,0.0
54795.0,STARLINK-5436,PAYLOAD,2024-08-08 22:55:08,15.08841549,0.0001282,53.2165,102.5011,106.4907,253.6226,0.0019386,0.00030701,0.0,0 STARLINK-5436,1 54795U 22175AP  24221.95496114  .00030701  00000-0  19386-2 0  9997,2 54795  53.2165 102.5011 0001282 106.4907 253.6226 15.08841549 92916,6917.876,95.437,540.628,538.854,0.0
54795.0,STARLINK-5436,PAYLOAD,2024-08-09 02:05:54,15.08850431,0.0001266,53.2165,101.9044,104.2002,255.9131,0.0017971,0.00028437,0.0,0 STARLINK-5436,1 54795U 22175AP  24222.08744018  .00028437  00000-0  17971-2 0  9992,2 54795  53.2165 101.9044 0001266 104.2002 255.9131 15.08850431 90771,6917.849,95.437,540.589,538.838,0.0
54795.0,STARLINK-5436,PAYLOAD,2024-08-09 19:35:09,15.08838487,6.82e-05,53.2165,98.6341,75.4408,284.666,0.0010214,0.00016004,0.0,0 STARLINK-5436,1 54795U 22175AP  24222.81608279  .00016004  00000-0  10214-2 0  9991,2 54795  53.2165  98.6341 0000682  75.4408 284.6660 15.08838487 90888,6917.885,95.438,540.222,539.278,0.0
54795.0,STARLINK-5436,PAYLOAD,2024-08-09 21:10:32,15.08840054,0.0001089,53.2162,98.335,103.5888,256.5225,0.0010373,0.00016259,0.0,0 STARLINK-5436,1 54795U 22175AP  24222.88232229  .00016259  00000-0  10373-2 0  9994,2 54795  53.2162  98.3350 0001089 103.5888 256.5225 15.08840054 93059,6917.88,95.438,540.499,538.992,0.0
54795.0,STARLINK-5436,PAYLOAD,2024-08-10 14:39:47,15.08843324,0.0001376,53.2171,95.0643,109.8089,250.3051,0.00065015,0.00010075,0.0,0 STARLINK-5436,1 54795U 22175AP  24223.61096377  .00010075  00000-0  65015-3 0  9992,2 54795  53.2171  95.0643 0001376 109.8089 250.3051 15.08843324 93163,6917.87,95.437,540.687,538.783,0.0
54795.0,STARLINK-5436,PAYLOAD,2024-08-10 21:01:20,15.08834274,0.0001218,53.2164,93.873,96.9352,263.1778,5.1329e-05,5.29e-06,0.0,0 STARLINK-5436,1 54795U 22175AP  24223.87592605  .00000529  00000-0  51329-4 0  9992,2 54795  53.2164  93.8730 0001218  96.9352 263.1778 15.08834274 91049,6917.898,95.438,540.605,538.92,0.0
54795.0,STARLINK-5436,PAYLOAD,2024-08-10 22:36:43,15.08835943,0.0001279,53.2165,93.5758,98.8146,261.2991,5.2522e-05,5.48e-06,0.0,0 STARLINK-5436,1 54795U 22175AP  24223.94216628  .00000548  00000-0  52522-4 0  9995,2 54795  53.2165  93.5758 0001279  98.8146 261.2991 15.08835943 93217,6917.893,95.438,540.643,538.873,0.0
54795.0,STARLINK-5436,PAYLOAD,2024-08-11 08:09:01,15.08855863,0.0001283,53.2167,91.7962,99.0124,261.1014,0.00039257,5.968e-05,0.0,0 STARLINK-5436,1 54795U 22175AP  24224.33959743  .00005968  00000-0  39257-3 0  9991,2 54795  53.2167  91.7962 0001283  99.0124 261.1014 15.08855863 91115,6917.832,95.437,540.584,538.809,0.0
54795.0,STARLINK-5436,PAYLOAD,2024-08-11 22:27:30,15.08836008,0.0001451,53.217,89.1148,77.6387,282.4767,7.7415e-05,9.44e-06,0.0,0 STARLINK-5436,1 54795U 22175AP  24224.93576790  .00000944  00000-0  77415-4 0  9992,2 54795  53.2170  89.1148 0001451  77.6387 282.4767 15.08836008 93366,6917.893,95.438,540.761,538.754,0.0
54795.0,STARLINK-5436,PAYLOAD,2024-08-12 00:02:53,15.0883826,0.0001587,53.2174,88.818,81.7708,278.3464,0.00011737,1.58e-05,0.0,0 STARLINK-5436,1 54795U 22175AP  24225.00200755  .00001580  00000-0  11737-3 0  9997,2 54795  53.2174  88.8180 0001587  81.7708 278.3464 15.08838260 91217,6917.886,95.438,540.849,538.653,0.0
54795.0,STARLINK-5436,PAYLOAD,2024-08-12 07:59:47,15.08865687,9.81e-05,53.2171,87.3316,94.7372,265.3732,0.0005278,8.128e-05,0.0,0 STARLINK-5436,1 54795U 22175AP  24225.33319182  .00008128  00000-0  52780-3 0  9996,2 54795  53.2171  87.3316 0000981  94.7372 265.3732 15.08865687 91269,6917.802,95.436,540.346,538.988,0.0
54795.0,STARLINK-5436,PAYLOAD,2024-08-12 22:18:16,15.08851819,0.0001327,53.2163,84.6563,87.1088,273.0056,0.00023981,3.532e-05,0.0,0 STARLINK-5436,1 54795U 22175AP  24225.92935637  .00003532  00000-0  23981-3 0  9995,2 54795  53.2163  84.6563 0001327  87.1088 273.0056 15.08851819 93516,6917.844,95.437,540.627,538.791,0.0
54795.0,STARLINK-5436,PAYLOAD,2024-08-12 23:53:39,15.08853427,0.0001349,53.2172,84.3596,88.5306,271.5841,0.00023514,3.458e-05,0.0,0 STARLINK-5436,1 54795U 22175AP  24225.99559509  .00003458  00000-0  23514-3 0  9991,2 54795  53.2172  84.3596 0001349  88.5306 271.5841 15.08853427 91364,6917.839,95.437,540.638,538.771,0.0
54795.0,STARLINK-5436,PAYLOAD,2024-08-13 07:50:34,15.0887662,0.0002402,53.2171,82.8734,75.4521,284.6738,0.00053364,8.223e-05,0.0,0 STARLINK-5436,1 54795U 22175AP  24226.32678542  .00008223  00000-0  53364-3 0  9999,2 54795  53.2171  82.8734 0002402  75.4521 284.6738 15.08876620 91411,6917.768,95.435,541.295,537.972,0.0
54795.0,STARLINK-5436,PAYLOAD,2024-08-13 20:33:41,15.08799067,0.0001423,53.2178,80.4933,81.2405,278.8748,-0.00095605,-0.00015454,0.0,0 STARLINK-5436,1 54795U 22175AP  24226.85673099 -.00015454  00000-0 -95605-3 0  9999,2 54795  53.2178  80.4933 0001423  81.2405 278.8748 15.08799067 91494,6918.006,95.44,540.855,538.886,0.0
54795.0,STARLINK-5436,PAYLOAD,2024-08-14 07:41:24,15.08808408,0.0001549,53.2177,78.4145,82.9293,277.1876,-0.00027357,-4.635e-05,0.0,0 STARLINK-5436,1 54795U 22175AP  24227.32041870 -.00004635  00000-0 -27357-3 0  9996,2 54795  53.2177  78.4145 0001549  82.9293 277.1876 15.08808408 91569,6917.977,95.44,540.914,538.77,0.0
54795.0,STARLINK-5436,PAYLOAD,2024-08-14 20:24:29,15.08821852,0.0001449,53.2187,76.0333,89.4744,270.6414,0.00059739,9.228e-05,0.0,0 STARLINK-5436,1 54795U 22175AP  24227.85034697  .00009228  00000-0  59739-3 0  9993,2 54795  53.2187  76.0333 0001449  89.4744 270.6414 15.08821852 91648,6917.936,95.439,540.803,538.798,0.0
54795.0,STARLINK-5436,PAYLOAD,2024-08-14 21:59:53,15.08825583,0.0001573,53.2179,75.7351,95.5585,264.5587,0.00078121,0.00012162,0.0,0 STARLINK-5436,1 54795U 22175AP  24227.91658771  .00012162  00000-0  78121-3 0  9992,2 54795  53.2179  75.7351 0001573  95.5585 264.5587 15.08825583 93813,6917.924,95.438,540.878,538.701,0.0
54795.0,STARLINK-5436,PAYLOAD,2024-08-15 07:32:11,15.08846675,0.0001495,53.2169,73.9516,87.5211,272.5952,0.0011788,0.00018526,0.0,0 STARLINK-5436,1 54795U 22175AP  24228.31402673  .00018526  00000-0  11788-2 0  9990,2 54795  53.2169  73.9516 0001495  87.5211 272.5952 15.08846675 93871,6917.86,95.437,540.759,538.691,0.0
